*******************************************************************************
JPL/HORIZONS               3753 Cruithne (1986 TO)         2023-May-05 15:10:14
Rec #:    3753 (+COV) Soln.date: 2023-Mar-01_06:10:23   # obs: 1216 (1973-2022)
 
IAU76/J2000 helio. ecliptic osc. elements (au, days, deg., period=Julian yrs):
 
  EPOCH=  2456900.5 ! 2014-Aug-31.00 (TDB)         Residual RMS= .35645
   EC= .5148627256994029   QR= .4840184658385133   TP= 2457012.169995938
   OM= 126.2462939076055   W=  43.80978547847901   IN= 19.80747881540994
   A= .9976938311662474    MA= 249.5553600271496   ADIST= 1.511369196493981
   PER= .99656             N= .9890269900000001    ANGMOM= .014729875
   DAN= .53459             DDN= 1.16671            L= 168.3137556
   B= 13.566979            MOID= .0710535          TP= 2014-Dec-20.6699959380
 
Asteroid physical parameters (km, seconds, rotational period in hours):
   GM= n.a.                RAD= 1.0355             ROTPER= 27.3099
   H= 15.5                 G= .150                 B-V= n.a.
                           ALBEDO= .365            STYP= Q
 
ASTEROID comments: 
1: soln ref.= JPL#240, OCC=0
2: source=ORB
*******************************************************************************

  

*******************************************************************************
Ephemeris / WWW_USER Fri May  5 15:10:14 2023 Pasadena, USA      / Horizons
*******************************************************************************
Target body name: 3753 Cruithne (1986 TO)         {source: JPL#240}
Center body name: Earth (399)                     {source: DE441}
Center-site name: BODY CENTER
*******************************************************************************
Start time      : A.D. 1700-May-16 09:03:00.0000 TDB
Stop  time      : A.D. 1701-Jun-11 17:20:05.0000 TDB
Step-size       : 1440 minutes
*******************************************************************************
Center geodetic : 0.0, 0.0, 0.0                   {E-lon(deg),Lat(deg),Alt(km)}
Center cylindric: 0.0, 0.0, 0.0                   {E-lon(deg),Dxy(km),Dz(km)}
Center radii    : 6378.137, 6378.137, 6356.752 km {Equator_a, b, pole_c}
Small perturbers: Yes                             {source: SB441-N16}
Output units    : KM-S
Calendar mode   : Mixed Julian/Gregorian
Output type     : GEOMETRIC cartesian states
Output format   : 1 (position only)
EOP file        : eop.230504.p230727
EOP coverage    : DATA-BASED 1962-JAN-20 TO 2023-MAY-04. PREDICTS-> 2023-JUL-26
Reference frame : Ecliptic of J2000.0
*******************************************************************************
Initial IAU76/J2000 heliocentric ecliptic osculating elements (au, days, deg.):
  EPOCH=  2456900.5 ! 2014-Aug-31.00 (TDB)         Residual RMS= .35645        
   EC= .5148627256994029   QR= .4840184658385133   TP= 2457012.169995938       
   OM= 126.2462939076055   W=  43.80978547847901   IN= 19.80747881540994       
  Equivalent ICRF heliocentric cartesian coordinates (au, au/d):
   X= 1.215347990905840E+00  Y= 5.153520927692684E-01  Z=-2.481738801145509E-01
  VX=-7.990656955364673E-03 VY= 8.039467650712289E-03 VZ= 3.939584837771865E-03
Asteroid physical parameters (km, seconds, rotational period in hours):        
   GM= n.a.                RAD= 1.0355             ROTPER= 27.3099             
   H= 15.5                 G= .150                 B-V= n.a.                   
                           ALBEDO= .365            STYP= Q                     
*******************************************************************************
            JDTDB,            Calendar Date (TDB),                      X,                      Y,                      Z,
**************************************************************************************************************************
$$SOE
2342157.877083333, A.D. 1700-Jul-05 09:03:00.0000,  8.865535329668730E+07,  2.393462091266361E+08, -5.878154819902492E+07,
2342158.877083333, A.D. 1700-Jul-06 09:03:00.0000,  8.430328559422809E+07,  2.395224709783135E+08, -5.844278793120335E+07,
2342159.877083333, A.D. 1700-Jul-07 09:03:00.0000,  7.993915108414319E+07,  2.396399153961137E+08, -5.809283996917262E+07,
2342160.877083333, A.D. 1700-Jul-08 09:03:00.0000,  7.556351186376104E+07,  2.396981899201112E+08, -5.773155221701527E+07,
2342161.877083333, A.D. 1700-Jul-09 09:03:00.0000,  7.117693686520854E+07,  2.396969340912074E+08, -5.735876951755454E+07,
2342162.877083333, A.D. 1700-Jul-10 09:03:00.0000,  6.678000289492518E+07,  2.396357797132102E+08, -5.697433370544426E+07,
2342163.877083333, A.D. 1700-Jul-11 09:03:00.0000,  6.237329592212258E+07,  2.395143514826466E+08, -5.657808370217060E+07,
2342164.877083333, A.D. 1700-Jul-12 09:03:00.0000,  5.795741244734775E+07,  2.393322682873567E+08, -5.616985567351072E+07,
2342165.877083333, A.D. 1700-Jul-13 09:03:00.0000,  5.353296055260245E+07,  2.390891454297717E+08, -5.574948325906277E+07,
2342166.877083333, A.D. 1700-Jul-14 09:03:00.0000,  4.910055998481547E+07,  2.387845978153908E+08, -5.531679785745437E+07,
2342167.877083333, A.D. 1700-Jul-15 09:03:00.0000,  4.466084049497928E+07,  2.384182437039964E+08, -5.487162890926754E+07,
2342168.877083333, A.D. 1700-Jul-16 09:03:00.0000,  4.021443786735637E+07,  2.379897080260568E+08, -5.441380407591803E+07,
2342169.877083333, A.D. 1700-Jul-17 09:03:00.0000,  3.576198777820276E+07,  2.374986238283292E+08, -5.394314919762892E+07,
2342170.877083333, A.D. 1700-Jul-18 09:03:00.0000,  3.130411864082174E+07,  2.369446305738403E+08, -5.345948795919043E+07,
2342171.877083333, A.D. 1700-Jul-19 09:03:00.0000,  2.684144533045281E+07,  2.363273689640252E+08, -5.296264129531968E+07,
2342172.877083333, A.D. 1700-Jul-20 09:03:00.0000,  2.237456553982574E+07,  2.356464732408239E+08, -5.245242667261641E+07,
2342173.877083333, A.D. 1700-Jul-21 09:03:00.0000,  1.790405950202651E+07,  2.349015627515077E+08, -5.192865742365225E+07,
2342174.877083333, A.D. 1700-Jul-22 09:03:00.0000,  1.343049260696712E+07,  2.340922344531619E+08, -5.139114226218104E+07,
2342175.877083333, A.D. 1700-Jul-23 09:03:00.0000,  8.954419740767032E+06,  2.332180572523816E+08, -5.083968502059622E+07,
2342176.877083333, A.D. 1700-Jul-24 09:03:00.0000,  4.476390176699117E+06,  2.322785682287489E+08, -5.027408457904932E+07,
2342177.877083333, A.D. 1700-Jul-25 09:03:00.0000, -3.047742859184742E+03,  2.312732702889441E+08, -4.969413492605226E+07,
2342178.877083333, A.D. 1700-Jul-26 09:03:00.0000, -4.483342434838057E+06,  2.302016306847943E+08, -4.909962529525325E+07,
2342179.877083333, A.D. 1700-Jul-27 09:03:00.0000, -8.963935404454216E+06,  2.290630799453912E+08, -4.849034034289597E+07,
2342180.877083333, A.D. 1700-Jul-28 09:03:00.0000, -1.344425792824119E+07,  2.278570109558607E+08, -4.786606035044295E+07,
2342181.877083333, A.D. 1700-Jul-29 09:03:00.0000, -1.792372792969593E+07,  2.265827780684130E+08, -4.722656145055215E+07,
2342182.877083333, A.D. 1700-Jul-30 09:03:00.0000, -2.240174693005094E+07,  2.252396962232881E+08, -4.657161588131510E+07,
2342183.877083333, A.D. 1700-Jul-31 09:03:00.0000, -2.687769701263580E+07,  2.238270400914613E+08, -4.590099227514988E+07,
2342184.877083333, A.D. 1700-Aug-01 09:03:00.0000, -3.135093777944176E+07,  2.223440432456258E+08, -4.521445598740787E+07,
2342185.877083333, A.D. 1700-Aug-02 09:03:00.0000, -3.582080329093963E+07,  2.207898973434331E+08, -4.451176946789446E+07,
2342186.877083333, A.D. 1700-Aug-03 09:03:00.0000, -4.028659896581966E+07,  2.191637512882177E+08, -4.379269267788041E+07,
2342187.877083333, A.D. 1700-Aug-04 09:03:00.0000, -4.474759838648482E+07,  2.174647103327993E+08, -4.305698355678070E+07,
2342188.877083333, A.D. 1700-Aug-05 09:03:00.0000, -4.920303992444085E+07,  2.156918351186430E+08, -4.230439854661959E+07,
2342189.877083333, A.D. 1700-Aug-06 09:03:00.0000, -5.365212308387492E+07,  2.138441406946315E+08, -4.153469318806152E+07,
2342190.877083333, A.D. 1700-Aug-07 09:03:00.0000, -5.809400447728644E+07,  2.119205956290906E+08, -4.074762280798980E+07,
2342191.877083333, A.D. 1700-Aug-08 09:03:00.0000, -6.252779340856069E+07,  2.099201214008036E+08, -3.994294332362464E+07,
2342192.877083333, A.D. 1700-Aug-09 09:03:00.0000, -6.695254715913530E+07,  2.078415923037843E+08, -3.912041218935471E+07,
2342193.877083333, A.D. 1700-Aug-10 09:03:00.0000, -7.136726625462636E+07,  2.056838360818074E+08, -3.827978950588441E+07,
2342194.877083333, A.D. 1700-Aug-11 09:03:00.0000, -7.577089020129254E+07,  2.034456353558801E+08, -3.742083929231184E+07,
2342195.877083333, A.D. 1700-Aug-12 09:03:00.0000, -8.016229432186827E+07,  2.011257295594208E+08, -3.654333088843751E+07,
2342196.877083333, A.D. 1700-Aug-13 09:03:00.0000, -8.454028820012581E+07,  1.987228165754027E+08, -3.564704041519455E+07,
2342197.877083333, A.D. 1700-Aug-14 09:03:00.0000, -8.890361567525707E+07,  1.962355527990405E+08, -3.473175220083047E+07,
2342198.877083333, A.D. 1700-Aug-15 09:03:00.0000, -9.325095535727149E+07,  1.936625503516698E+08, -3.379726011412102E+07,
2342199.877083333, A.D. 1700-Aug-16 09:03:00.0000, -9.758091974874485E+07,  1.910023709761334E+08, -3.284336884575210E+07,
2342200.877083333, A.D. 1700-Aug-17 09:03:00.0000, -1.018920509687021E+08,  1.882535175204550E+08, -3.186989530174355E+07,
2342201.877083333, A.D. 1700-Aug-18 09:03:00.0000, -1.061828120454692E+08,  1.854144250268378E+08, -3.087667033772969E+07,
2342202.877083333, A.D. 1700-Aug-19 09:03:00.0000, -1.104515741900379E+08,  1.824834535394675E+08, -2.986354102517495E+07,
2342203.877083333, A.D. 1700-Aug-20 09:03:00.0000, -1.146966014467351E+08,  1.794588838882648E+08, -2.883037353612178E+07,
2342204.877083333, A.D. 1700-Aug-21 09:03:00.0000, -1.189160342133503E+08,  1.763389166146726E+08, -2.777705663757972E+07,
2342205.877083333, A.D. 1700-Aug-22 09:03:00.0000, -1.231078725985357E+08,  1.731216735169914E+08, -2.670350574585869E+07,
2342206.877083333, A.D. 1700-Aug-23 09:03:00.0000, -1.272699599489115E+08,  1.698052011504117E+08, -2.560966750046286E+07,
